STARLINK-37361          
1 69134U 26110L   26166.50002315  .00055212  00000+0  17017-2 0  9992
2 69134  97.2837   2.9437 0002016  83.7006 178.9635 15.33412912  5385
STARLINK-37372          
1 69135U 26110M   26166.50002315 -.02429341  00000+0 -58041-1 0  9996
2 69135  97.2847   2.9246 0002208  76.3598 131.9657 15.44987896  5385
STARLINK-37531          
1 69136U 26110N   26166.50002315  .00064543  00000+0  19874-2 0  9994
2 69136  97.2833   2.9600 0001578  87.5524 205.1716 15.33398304  5385
STARLINK-37662          
1 69137U 26110P   26166.50002315 -.02440022  00000+0 -57593-1 0  9998
2 69137  97.2839   2.9242 0001908  70.7648 140.2741 15.45360401  5389
STARLINK-37658          
1 69138U 26110Q   26166.49303634  .00056712  00000+0  10356-2 0  9997
2 69138  97.2827   2.8407 0002195 120.4047 239.7421 15.49223652  5349
STARLINK-37659          
1 69139U 26110R   26166.50075773  .00059444  00000+0  10857-2 0  9991
2 69139  97.2830   2.8309 0001445  69.9288 290.2118 15.49207704  5341
STARLINK-37653          
1 69140U 26110S   26166.50319623  .00030901  00000+0  56711-3 0  9995
2 69140  97.2829   2.8275 0001634  98.6222 261.5214 15.49213318  5346
STARLINK-37654          
1 69141U 26110T   26166.52422448  .00038342  00000+0  70164-3 0  9993
2 69141  97.2827   2.9503 0001819  88.7991 271.3469 15.49252690  5356
STARLINK-37655          
1 69142U 26110U   26166.50002315 -.02837675  00000+0 -76888-1 0  9996
2 69142  97.2851   2.9712 0001164  72.5924 242.3133 15.41251331  5388
STARLINK-37636          
1 69143U 26110V   26166.50002315  .00069373  00000+0  21368-2 0  9999
2 69143  97.2850   2.9974 0001717  80.3514 317.3542 15.33366291  5384
STARLINK-37638          
1 69144U 26110W   26166.50002315  .00064454  00000+0  19845-2 0  9992
2 69144  97.2847   3.0061 0001388  76.0192 336.6823 15.33402651  5385
STARLINK-37657          
1 69145U 26110X   26166.52443814  .00047748  00000+0  87371-3 0  9995
2 69145  97.2826   2.9495 0001306  20.9374 339.1931 15.49207823  5358
STARLINK-37639          
1 69146U 26110Y   26166.50002315  .00065256  00000+0  20090-2 0  9999
2 69146  97.2845   3.0223 0001565  81.0986   1.6216 15.33401441  5436
STARLINK-37661          
1 69147U 26110Z   26166.54588834  .00040531  00000+0  74266-3 0  9993
2 69147  97.2826   2.9207 0001712  94.2846 265.8600 15.49204189  5350
STARLINK-37395          
1 69148U 26111A   26166.50002315 -.00659760  00000+0 -73452-2 0  9993
2 69148  53.1593 160.3674 0001218  68.1775 167.1473 15.64284069  5277
STARLINK-37346          
1 69149U 26111B   26166.50002315  .00052236  00000+0  94170-3 0  9998
2 69149  53.1598 160.8856 0001472  72.0845 267.6038 15.49287089  5275
STARLINK-37332          
1 69150U 26111C   26166.50002315  .00051840  00000+0  93469-3 0  9990
2 69150  53.1587 161.2112 0001197  78.5210 100.3597 15.49286633  5273
STARLINK-37297          
1 69151U 26111D   26166.50002315 -.02704455  00000+0 -32747-1 0  9992
2 69151  53.1594 160.3042 0001974  93.4980 172.7088 15.63933133  5275
STARLINK-37317          
1 69152U 26111E   26166.50002315 -.02488680  00000+0 -24735-1 0  9990
2 69152  53.1598 160.1824 0000778  82.7091 242.8685 15.68466268  5278
STARLINK-37374          
1 69153U 26111F   26166.50002315  .00050370  00000+0  90858-3 0  9999
2 69153  53.1586 161.3878 0000836  78.9491  12.3327 15.49286615  5272
STARLINK-37235          
1 69154U 26111G   26166.31156016  .00032252  00000+0  58549-3 0  9997
2 69154  53.1588 162.5293 0001421  59.4000 300.7149 15.49312212  3941
STARLINK-37329          
1 69155U 26111H   26166.50002315 -.02549842  00000+0 -25541-1 0  9997
2 69155  53.1597 160.1861 0000796  83.4302 240.3072 15.68366095  5274
STARLINK-37345          
1 69156U 26111J   26166.50002315 -.02584255  00000+0 -24181-1 0  9994
2 69156  53.1594 160.1441 0000746  76.0616 268.3837 15.70045192  5271
STARLINK-37353          
1 69157U 26111K   26166.50002315 -.02559425  00000+0 -23662-1 0  9999
2 69157  53.1596 160.1387 0000786  76.7336 270.3940 15.70294989  5271
STARLINK-37363          
1 69158U 26111L   26166.50002315 -.02539123  00000+0 -23699-1 0  9993
2 69158  53.1596 160.1406 0000523  74.0394 271.7905 15.70043351  5279
STARLINK-37343          
1 69159U 26111M   26166.50002315  .00051427  00000+0  92732-3 0  9992
2 69159  53.1586 161.3887 0000840  79.0764  11.4314 15.49287885  5274
STARLINK-37328          
1 69160U 26111N   26164.72352018  .00440945  00000+0  21155-2 0  9991
2 69160  53.1569 168.9418 0002882  21.7732 338.3413 15.80975520  3710
STARLINK-37311          
1 69161U 26111P   26166.50002315 -.02513151  00000+0 -20042-1 0  9999
2 69161  53.1588 160.2241 0000701  78.2359 227.4649 15.73679139  5272
STARLINK-36286          
1 69162U 26111Q   26165.05091157  .00507206  00000+0  26694-2 0  9991
2 69162  53.1564 167.4332 0002061 147.7855 212.3293 15.78761169  3761
STARLINK-37196          
1 69163U 26111R   26165.56034997  .00136844  00000+0  77789-3 0  9995
2 69163  53.1566 164.9214 0001435  48.8780 311.2365 15.78098124  3849
