OBJECT_NAME,OBJECT_ID,EPOCH,MEAN_MOTION,ECCENTRICITY,INCLINATION,RA_OF_ASC_NODE,ARG_OF_PERICENTER,MEAN_ANOMALY,EPHEMERIS_TYPE,CLASSIFICATION_TYPE,NORAD_CAT_ID,ELEMENT_SET_NO,REV_AT_EPOCH,BSTAR,MEAN_MOTION_DOT,MEAN_MOTION_DDOT
STARLINK-37361,2026-110L,2026-06-15T12:00:02.000160,15.33412912,.0002016,97.2837,2.9437,83.7006,178.9635,0,U,69134,999,538,.17017E-2,.55212E-3,0
STARLINK-37372,2026-110M,2026-06-15T12:00:02.000160,15.44987896,.0002208,97.2847,2.9246,76.3598,131.9657,0,U,69135,999,538,-.58041E-1,-.2429341E-1,0
STARLINK-37531,2026-110N,2026-06-15T12:00:02.000160,15.33398304,.0001578,97.2833,2.9600,87.5524,205.1716,0,U,69136,999,538,.19874E-2,.64543E-3,0
STARLINK-37662,2026-110P,2026-06-15T12:00:02.000160,15.45360401,.0001908,97.2839,2.9242,70.7648,140.2741,0,U,69137,999,538,-.57593E-1,-.2440022E-1,0
STARLINK-37658,2026-110Q,2026-06-15T11:49:58.339776,15.49223652,.0002195,97.2827,2.8407,120.4047,239.7421,0,U,69138,999,534,.10356E-2,.56712E-3,0
STARLINK-37659,2026-110R,2026-06-15T12:01:05.467872,15.49207704,.0001445,97.2830,2.8309,69.9288,290.2118,0,U,69139,999,534,.10857E-2,.59444E-3,0
STARLINK-37653,2026-110S,2026-06-15T12:04:36.154272,15.49213318,.0001634,97.2829,2.8275,98.6222,261.5214,0,U,69140,999,534,.56711E-3,.30901E-3,0
STARLINK-37654,2026-110T,2026-06-15T12:34:52.995072,15.49252690,.0001819,97.2827,2.9503,88.7991,271.3469,0,U,69141,999,535,.70164E-3,.38342E-3,0
STARLINK-37655,2026-110U,2026-06-15T12:00:02.000160,15.41251331,.0001164,97.2851,2.9712,72.5924,242.3133,0,U,69142,999,538,-.76888E-1,-.2837675E-1,0
STARLINK-37636,2026-110V,2026-06-15T12:00:02.000160,15.33366291,.0001717,97.2850,2.9974,80.3514,317.3542,0,U,69143,999,538,.21368E-2,.69373E-3,0
STARLINK-37638,2026-110W,2026-06-15T12:00:02.000160,15.33402651,.0001388,97.2847,3.0061,76.0192,336.6823,0,U,69144,999,538,.19845E-2,.64454E-3,0
STARLINK-37657,2026-110X,2026-06-15T12:35:11.455296,15.49207823,.0001306,97.2826,2.9495,20.9374,339.1931,0,U,69145,999,535,.87371E-3,.47748E-3,0
STARLINK-37639,2026-110Y,2026-06-15T12:00:02.000160,15.33401441,.0001565,97.2845,3.0223,81.0986,1.6216,0,U,69146,999,543,.2009E-2,.65256E-3,0
STARLINK-37661,2026-110Z,2026-06-15T13:06:04.752576,15.49204189,.0001712,97.2826,2.9207,94.2846,265.8600,0,U,69147,999,535,.74266E-3,.40531E-3,0
STARLINK-37395,2026-111A,2026-06-15T12:00:02.000160,15.64284069,.0001218,53.1593,160.3674,68.1775,167.1473,0,U,69148,999,527,-.73452E-2,-.65976E-2,0
STARLINK-37346,2026-111B,2026-06-15T12:00:02.000160,15.49287089,.0001472,53.1598,160.8856,72.0845,267.6038,0,U,69149,999,527,.9417E-3,.52236E-3,0
STARLINK-37332,2026-111C,2026-06-15T12:00:02.000160,15.49286633,.0001197,53.1587,161.2112,78.5210,100.3597,0,U,69150,999,527,.93469E-3,.5184E-3,0
STARLINK-37297,2026-111D,2026-06-15T12:00:02.000160,15.63933133,.0001974,53.1594,160.3042,93.4980,172.7088,0,U,69151,999,527,-.32747E-1,-.2704455E-1,0
STARLINK-37317,2026-111E,2026-06-15T12:00:02.000160,15.68466268,.0000778,53.1598,160.1824,82.7091,242.8685,0,U,69152,999,527,-.24735E-1,-.248868E-1,0
STARLINK-37374,2026-111F,2026-06-15T12:00:02.000160,15.49286615,.0000836,53.1586,161.3878,78.9491,12.3327,0,U,69153,999,527,.90858E-3,.5037E-3,0
STARLINK-37235,2026-111G,2026-06-15T07:28:38.797824,15.49312212,.0001421,53.1588,162.5293,59.4000,300.7149,0,U,69154,999,394,.58549E-3,.32252E-3,0
STARLINK-37329,2026-111H,2026-06-15T12:00:02.000160,15.68366095,.0000796,53.1597,160.1861,83.4302,240.3072,0,U,69155,999,527,-.25541E-1,-.2549842E-1,0
STARLINK-37345,2026-111J,2026-06-15T12:00:02.000160,15.70045192,.0000746,53.1594,160.1441,76.0616,268.3837,0,U,69156,999,527,-.24181E-1,-.2584255E-1,0
STARLINK-37353,2026-111K,2026-06-15T12:00:02.000160,15.70294989,.0000786,53.1596,160.1387,76.7336,270.3940,0,U,69157,999,527,-.23662E-1,-.2559425E-1,0
STARLINK-37363,2026-111L,2026-06-15T12:00:02.000160,15.70043351,.0000523,53.1596,160.1406,74.0394,271.7905,0,U,69158,999,527,-.23699E-1,-.2539123E-1,0
STARLINK-37343,2026-111M,2026-06-15T12:00:02.000160,15.49287885,.000084,53.1586,161.3887,79.0764,11.4314,0,U,69159,999,527,.92732E-3,.51427E-3,0
STARLINK-37328,2026-111N,2026-06-13T17:21:52.143552,15.80975520,.00028828,53.1569,168.9418,21.7732,338.3413,0,U,69160,999,371,.21155205E-2,.440945E-2,0
STARLINK-37311,2026-111P,2026-06-15T12:00:02.000160,15.73679139,.0000701,53.1588,160.2241,78.2359,227.4649,0,U,69161,999,527,-.20042E-1,-.2513151E-1,0
STARLINK-36286,2026-111Q,2026-06-14T01:13:18.759648,15.78761169,.00020619,53.1564,167.4332,147.7855,212.3293,0,U,69162,999,376,.26694472E-2,.507206E-2,0
STARLINK-37196,2026-111R,2026-06-14T13:26:54.237408,15.78098124,.0001435,53.1566,164.9214,48.8780,311.2365,0,U,69163,999,384,.77789E-3,.136844E-2,0
